KUZGTU 1 (RS47S)        
1 57217U 23091AV  26193.60358776  .00007558  00000+0  25906-3 0  9999
2 57217  97.5058 258.3500 0010339  15.5900 344.5656 15.30433131168267
SONATE-2                
1 59112U 24043Q   26193.48061029  .00029638  00000+0  35798-3 0  9994
2 59112  97.5546 345.4684 0006752 114.0298 246.1666 15.60670431131835
MESAT1                  
1 60209U 24125G   26193.56016104  .00047409  00000+0  45928-3 0  9999
2 60209  97.2256  51.6710 0010956 120.7531 239.4810 15.66181054113537
OOV-CUBE (TUBSAT-30)    
1 60240U 24128F   26193.40605557  .00001093  00000+0  95469-4 0  9991
2 60240  61.9937 137.6292 0041488 139.4098 221.0100 15.02866804109903
COLIBRI-S (RS67S)       
1 61746U 24199M   26193.59127823  .00015209  00000+0  28446-3 0  9990
2 61746  97.2963  67.6914 0008675 171.2908 188.8495 15.48775395141349
HORS 3 (RS81S)          
1 61753U 24199U   26193.62267228  .00028304  00000+0  39584-3 0  9991
2 61753  97.2943  69.9988 0006831 163.4569 196.6910 15.56770644141518
HORS 4 (RS82S)          
1 61754U 24199V   26193.62929056  .00039747  00000+0  45187-3 0  9995
2 61754  97.2885  71.3835 0006752 155.3623 204.7959 15.62189686141617
SIT-2086                
1 61764U 24199AF  26193.63184654  .00029298  00000+0  43884-3 0  9996
2 61764  97.2901  70.3963 0007907 152.1117 208.0562 15.54885649138384
HYPERVIEW 1G (RS66S)    
1 61772U 24199AP  26193.58932826  .00186927  00000+0  80696-3 0  9996
2 61772  97.2813  74.7379 0008220 153.4146 206.7547 15.84418800138684
ALTAIR (RS65S)          
1 61779U 24199AW  26193.62859529  .00006433  00000+0  17691-3 0  9994
2 61779  97.3001  62.8159 0011758 206.1372 153.9281 15.37471931141024
ASRTU-1 (AO-123)        
1 61781U 24199AY  26193.57453139  .00004720  00000+0  13653-3 0  9999
2 61781  97.2971  62.0186 0012727 210.5888 149.4615 15.36029606137823
SAMSAT-IONOSPHERE (RS7*)
1 61784U 24199BB  26193.60934708  .00036096  00000+0  44717-3 0  9998
2 61784  97.2910  70.1324 0008919 168.8247 191.3210 15.59942887141524
RTU MIREA 1 (RS51S)     
1 61785U 24199BC  26193.63657137  .00049862  00000+0  52612-3 0  9998
2 61785  97.2895  71.1344 0009021 163.3288 196.8269 15.64038672138445
TEVEL2-4                
1 63213U 25052D   26193.14863208  .00010852  00000+0  31682-3 0  9990
2 63213  97.3883  89.5932 0003806  58.2703 301.8911 15.35493352 73949
TEVEL2-5                
1 63214U 25052E   26193.17203627  .00010707  00000+0  31447-3 0  9995
2 63214  97.3875  89.5570 0003832  59.0491 301.1129 15.35309356 73945
TEVEL2-6                
1 63215U 25052F   26193.18493848  .00011196  00000+0  32905-3 0  9996
2 63215  97.3878  89.5546 0003820  61.8174 298.3455 15.35273569 73943
TEVEL2-1                
1 63217U 25052H   26193.15771606  .00010310  00000+0  30872-3 0  9994
2 63217  97.3854  89.1215 0004471  66.2776 293.8936 15.34705870 73924
TEVEL2-3                
1 63218U 25052J   26193.15139874  .00010389  00000+0  31046-3 0  9990
2 63218  97.3855  89.1404 0004252  67.7736 292.3958 15.34767444 73928
TEVEL2-2                
1 63219U 25052K   26193.15786480  .00010291  00000+0  30804-3 0  9995
2 63219  97.3850  89.1247 0004532  66.8896 293.2824 15.34716519 73926
OTP-2                   
1 63235U 25052AB  26192.64986825  .00004286  00000+0  17810-3 0  9990
2 63235  97.3846  84.7167 0008306  80.9023 279.3154 15.24307968 73590
TEVEL2-9                
1 63237U 25052AD  26193.16807814  .00009399  00000+0  30009-3 0  9995
2 63237  97.3918  88.4550 0007902  65.0146 295.1916 15.32670115 73857
TEVEL2-7                
1 63238U 25052AE  26193.14863884  .00009273  00000+0  29903-3 0  9995
2 63238  97.3916  88.3405 0007985  65.2305 294.9767 15.32354538 73842
TEVEL2-8                
1 63239U 25052AF  26193.15713210  .00009130  00000+0  29457-3 0  9990
2 63239  97.3920  88.3251 0008082  66.3395 293.8694 15.32340401 73848
INNOSAT 16 (RS92S7)     
1 64878U 25155C   26193.58236191  .00003421  00000+0  13681-3 0  9998
2 64878  97.4577 160.6359 0012473  96.2297 264.0363 15.25721179 84541
GEOSCAN 6 (RS92S6)      
1 64879U 25155D   26193.55096558  .00006372  00000+0  21761-3 0  9993
2 64879  97.4565 162.2114 0010001  89.6258 270.6128 15.30622001 84647
GEOSCAN 1 (RS92S1)      
1 64880U 25155E   26193.60848067  .00007253  00000+0  24241-3 0  9996
2 64880  97.4560 162.4401 0009956  89.5929 270.6453 15.31267444 84666
239ALFEROV (RS61S)      
1 64881U 25155F   26193.60572583  .00009550  00000+0  29579-3 0  9995
2 64881  97.4560 163.0871 0009645  89.2641 270.9706 15.33623479 84703
GEOSCAN 2 (RS92S2)      
1 64890U 25155Q   26193.59778939  .00007007  00000+0  23250-3 0  9991
2 64890  97.4560 162.5917 0009147  79.7255 280.5018 15.31525393 84673
GEOSCAN 5 (RS92S5)      
1 64891U 25155R   26193.58955886  .00009467  00000+0  29050-3 0  9995
2 64891  97.4551 163.2179 0008658  93.6304 266.5929 15.33929791 84710
GEOSCAN 4 (RS92S4)      
1 64892U 25155S   26193.57110500  .00009298  00000+0  28387-3 0  9995
2 64892  97.4556 163.2552 0008591  93.7840 266.4386 15.34096693 84716
