OBJECT_NAME,OBJECT_ID,EPOCH,MEAN_MOTION,ECCENTRICITY,INCLINATION,RA_OF_ASC_NODE,ARG_OF_PERICENTER,MEAN_ANOMALY,EPHEMERIS_TYPE,CLASSIFICATION_TYPE,NORAD_CAT_ID,ELEMENT_SET_NO,REV_AT_EPOCH,BSTAR,MEAN_MOTION_DOT,MEAN_MOTION_DDOT
KUZGTU 1 (RS47S),2023-091AV,2026-07-12T14:29:09.982464,15.30433131,.00103397,97.5058,258.3500,15.5900,344.5656,0,U,57217,999,16826,.25906442E-3,.7558E-4,0
SONATE-2,2024-043Q,2026-07-12T11:32:04.729056,15.60670431,.00067521,97.5546,345.4684,114.0298,246.1666,0,U,59112,999,13183,.35798349E-3,.29638E-3,0
MESAT1,2024-125G,2026-07-12T13:26:37.913856,15.66181054,.00109567,97.2256,51.6710,120.7531,239.4810,0,U,60209,999,11353,.45928267E-3,.47409E-3,0
OOV-CUBE (TUBSAT-30),2024-128F,2026-07-12T09:44:43.201248,15.02866804,.00414886,61.9937,137.6292,139.4098,221.0100,0,U,60240,999,10990,.95468612E-4,.1093E-4,0
COLIBRI-S (RS67S),2024-199M,2026-07-12T14:11:26.439072,15.48775395,.00086756,97.2963,67.6914,171.2908,188.8495,0,U,61746,999,14134,.28445508E-3,.15209E-3,0
HORS 3 (RS81S),2024-199U,2026-07-12T14:56:38.884992,15.56770644,.00068311,97.2943,69.9988,163.4569,196.6910,0,U,61753,999,14151,.39583755E-3,.28304E-3,0
HORS 4 (RS82S),2024-199V,2026-07-12T15:06:10.704384,15.62189686,.00067527,97.2885,71.3835,155.3623,204.7959,0,U,61754,999,14161,.45186823E-3,.39747E-3,0
SIT-2086,2024-199AF,2026-07-12T15:09:51.541056,15.54885649,.00079071,97.2901,70.3963,152.1117,208.0562,0,U,61764,999,13838,.4388395E-3,.29298E-3,0
HYPERVIEW 1G (RS66S),2024-199AP,2026-07-12T14:08:37.961664,15.84418800,.00082206,97.2813,74.7379,153.4146,206.7547,0,U,61772,999,13868,.80696108E-3,.186927E-2,0
ALTAIR (RS65S),2024-199AW,2026-07-12T15:05:10.633056,15.37471931,.00117587,97.3001,62.8159,206.1372,153.9281,0,U,61779,999,14102,.17691343E-3,.6433E-4,0
ASRTU-1 (AO-123),2024-199AY,2026-07-12T13:47:19.512096,15.36029606,.00127273,97.2971,62.0186,210.5888,149.4615,0,U,61781,999,13782,.13652838E-3,.472E-4,0
SAMSAT-IONOSPHERE (RS75S),2024-199BB,2026-07-12T14:37:27.587712,15.59942887,.00089195,97.2910,70.1324,168.8247,191.3210,0,U,61784,999,14152,.44716841E-3,.36096E-3,0
RTU MIREA 1 (RS51S),2024-199BC,2026-07-12T15:16:39.766368,15.64038672,.00090213,97.2895,71.1344,163.3288,196.8269,0,U,61785,999,13844,.5261167E-3,.49862E-3,0
TEVEL2-4,2025-052D,2026-07-12T03:34:01.811712,15.35493352,.00038061,97.3883,89.5932,58.2703,301.8911,0,U,63213,999,7394,.3168171E-3,.10852E-3,0
TEVEL2-5,2025-052E,2026-07-12T04:07:43.933728,15.35309356,.0003832,97.3875,89.5570,59.0491,301.1129,0,U,63214,999,7394,.31446899E-3,.10707E-3,0
TEVEL2-6,2025-052F,2026-07-12T04:26:18.684672,15.35273569,.00038208,97.3878,89.5546,61.8174,298.3455,0,U,63215,999,7394,.32905453E-3,.11196E-3,0
TEVEL2-1,2025-052H,2026-07-12T03:47:06.667584,15.34705870,.0004471,97.3854,89.1215,66.2776,293.8936,0,U,63217,999,7392,.30871936E-3,.1031E-3,0
TEVEL2-3,2025-052J,2026-07-12T03:38:00.851136,15.34767444,.00042525,97.3855,89.1404,67.7736,292.3958,0,U,63218,999,7392,.31046195E-3,.10389E-3,0
TEVEL2-2,2025-052K,2026-07-12T03:47:19.518720,15.34716519,.00045323,97.3850,89.1247,66.8896,293.2824,0,U,63219,999,7392,.30803975E-3,.10291E-3,0
OTP-2,2025-052AB,2026-07-11T15:35:48.616800,15.24307968,.00083062,97.3846,84.7167,80.9023,279.3154,0,U,63235,999,7359,.17810231E-3,.4286E-4,0
TEVEL2-9,2025-052AD,2026-07-12T04:02:01.951296,15.32670115,.00079021,97.3918,88.4550,65.0146,295.1916,0,U,63237,999,7385,.30008574E-3,.9399E-4,0
TEVEL2-7,2025-052AE,2026-07-12T03:34:02.395776,15.32354538,.00079853,97.3916,88.3405,65.2305,294.9767,0,U,63238,999,7384,.29902657E-3,.9273E-4,0
TEVEL2-8,2025-052AF,2026-07-12T03:46:16.213440,15.32340401,.00080828,97.3920,88.3251,66.3395,293.8694,0,U,63239,999,7384,.29456705E-3,.913E-4,0
INNOSAT 16 (RS92S7),2025-155C,2026-07-12T13:58:36.069024,15.25721179,.00124734,97.4577,160.6359,96.2297,264.0363,0,U,64878,999,8454,.13680689E-3,.3421E-4,0
GEOSCAN 6 (RS92S6),2025-155D,2026-07-12T13:13:23.426112,15.30622001,.00100018,97.4565,162.2114,89.6258,270.6128,0,U,64879,999,8464,.21760638E-3,.6372E-4,0
GEOSCAN 1 (RS92S1),2025-155E,2026-07-12T14:36:12.729888,15.31267444,.00099569,97.4560,162.4401,89.5929,270.6453,0,U,64880,999,8466,.24240573E-3,.7253E-4,0
239ALFEROV (RS61S),2025-155F,2026-07-12T14:32:14.711712,15.33623479,.00096453,97.4560,163.0871,89.2641,270.9706,0,U,64881,999,8470,.29578605E-3,.955E-4,0
GEOSCAN 2 (RS92S2),2025-155Q,2026-07-12T14:20:49.003296,15.31525393,.00091475,97.4560,162.5917,79.7255,280.5018,0,U,64890,999,8467,.23250021E-3,.7007E-4,0
GEOSCAN 5 (RS92S5),2025-155R,2026-07-12T14:08:57.885504,15.33929791,.00086584,97.4551,163.2179,93.6304,266.5929,0,U,64891,999,8471,.29050366E-3,.9467E-4,0
GEOSCAN 4 (RS92S4),2025-155S,2026-07-12T13:42:23.472000,15.34096693,.00085917,97.4556,163.2552,93.7840,266.4386,0,U,64892,999,8471,.28387352E-3,.9298E-4,0
